[{"OBJECT_NAME":"FLOCK 4G-18","OBJECT_ID":"2025-009BZ","EPOCH":"2026-03-09T04:35:14.656704","MEAN_MOTION":15.27241676,"ECCENTRICITY":0.00041001,"INCLINATION":97.4054,"RA_OF_ASC_NODE":150.5008,"ARG_OF_PERICENTER":335.7331,"MEAN_ANOMALY":24.3715,"EPHEMERIS_TYPE":0,"CLASSIFICATION_TYPE":"U","NORAD_CAT_ID":62680,"ELEMENT_SET_NO":999,"REV_AT_EPOCH":12126,"BSTAR":0.0004431856,"MEAN_MOTION_DOT":0.00011766,"MEAN_MOTION_DDOT":0},{"OBJECT_NAME":"STARLINK-35835","OBJECT_ID":"2025-268N","EPOCH":"2026-03-09T03:53:51.352224","MEAN_MOTION":15.27575703,"ECCENTRICITY":0.00013269,"INCLINATION":43.003,"RA_OF_ASC_NODE":349.6479,"ARG_OF_PERICENTER":299.2565,"MEAN_ANOMALY":60.8154,"EPHEMERIS_TYPE":0,"CLASSIFICATION_TYPE":"U","NORAD_CAT_ID":66569,"ELEMENT_SET_NO":999,"REV_AT_EPOCH":1788,"BSTAR":0.0011639381,"MEAN_MOTION_DOT":0.00031901,"MEAN_MOTION_DDOT":0}]
